[{"OBJECT_NAME":"COSMOS 2561","OBJECT_ID":"2022-137A","EPOCH":"2026-03-09T19:59:13.468128","MEAN_MOTION":15.49066239,"ECCENTRICITY":0.0010723,"INCLINATION":96.9316,"RA_OF_ASC_NODE":131.6532,"ARG_OF_PERICENTER":40.6678,"MEAN_ANOMALY":319.5373,"EPHEMERIS_TYPE":0,"CLASSIFICATION_TYPE":"U","NORAD_CAT_ID":54109,"ELEMENT_SET_NO":999,"REV_AT_EPOCH":19095,"BSTAR":0.00030274,"MEAN_MOTION_DOT":0.0001638,"MEAN_MOTION_DDOT":0},{"OBJECT_NAME":"SHIYAN-32 01","OBJECT_ID":"2025-255A","EPOCH":"2026-03-09T23:03:58.906080","MEAN_MOTION":15.47052613,"ECCENTRICITY":0.00126665,"INCLINATION":52.9936,"RA_OF_ASC_NODE":122.2768,"ARG_OF_PERICENTER":323.2691,"MEAN_ANOMALY":36.7446,"EPHEMERIS_TYPE":0,"CLASSIFICATION_TYPE":"U","NORAD_CAT_ID":66376,"ELEMENT_SET_NO":999,"REV_AT_EPOCH":1883,"BSTAR":0.00048306269,"MEAN_MOTION_DOT":0.00024542,"MEAN_MOTION_DDOT":0}]
